start=new Date('2023-02-11T00:00:00.000Z').valueOf();
sats=[{"MEAN_MOTION_DOT":"0.00005095","TLE_LINE1":"1 53467U 22099C   23041.29824912  .00005095  00000-0  40094-3 0  9993","MEAN_ELEMENT_THEORY":"SGP4","ECCENTRICITY":"0.00003900","NORAD_CAT_ID":"53467","TIME_SYSTEM":"UTC","REF_FRAME":"TEME","FILE":"3785071","ARG_OF_PERICENTER":"305.6973","RA_OF_ASC_NODE":"164.1840","ELEMENT_SET_NO":"999","MEAN_MOTION_DDOT":"0.0000000000000","TLE_LINE2":"2 53467  97.6586 164.1840 0000390 305.6973  54.4215 15.01262338 27435","OBJECT_ID":"2022-099C","EPHEMERIS_TYPE":"0","DECAY_DATE":null,"MEAN_MOTION":"15.01262338","EPOCH":"2023-02-10T07:09:28.723968","CLASSIFICATION_TYPE":"U","OBJECT_NAME":"STARLINK-4394","BSTAR":"0.00040094000000","SEMIMAJOR_AXIS":"6941.140","PERIAPSIS":"562.734","APOAPSIS":"563.275","LAUNCH_DATE":"2022-08-12","SITE":"AFWTR","INCLINATION":"97.6586","RCS_SIZE":"LARGE","PERIOD":"95.919","MEAN_ANOMALY":"54.4215","GP_ID":"225072959","OBJECT_TYPE":"PAYLOAD","CENTER_NAME":"EARTH","REV_AT_EPOCH":"2743","COUNTRY_CODE":"US"},{"ECCENTRICITY":"0.00003400","MEAN_ELEMENT_THEORY":"SGP4","TLE_LINE1":"1 53468U 22099D   23041.29639865  .00007782  00000-0  60972-3 0  9997","MEAN_MOTION_DOT":"0.00007782","TLE_LINE2":"2 53468  97.6577 164.1803 0000340  17.0869 343.0366 15.01266397 27431","MEAN_MOTION_DDOT":"0.0000000000000","ELEMENT_SET_NO":"999","RA_OF_ASC_NODE":"164.1803","ARG_OF_PERICENTER":"17.0869","REF_FRAME":"TEME","FILE":"3785071","NORAD_CAT_ID":"53468","TIME_SYSTEM":"UTC","LAUNCH_DATE":"2022-08-12","APOAPSIS":"563.228","PERIAPSIS":"562.756","SEMIMAJOR_AXIS":"6941.127","BSTAR":"0.00060972000000","CLASSIFICATION_TYPE":"U","OBJECT_NAME":"STARLINK-4400","EPOCH":"2023-02-10T07:06:48.843360","MEAN_MOTION":"15.01266397","DECAY_DATE":null,"EPHEMERIS_TYPE":"0","OBJECT_ID":"2022-099D","REV_AT_EPOCH":"2743","COUNTRY_CODE":"US","CENTER_NAME":"EARTH","OBJECT_TYPE":"PAYLOAD","GP_ID":"225074211","PERIOD":"95.919","RCS_SIZE":"LARGE","MEAN_ANOMALY":"343.0366","INCLINATION":"97.6577","SITE":"AFWTR"},{"INCLINATION":"97.6579","SITE":"AFWTR","RCS_SIZE":"LARGE","MEAN_ANOMALY":"303.8803","PERIOD":"95.919","GP_ID":"225074458","OBJECT_TYPE":"PAYLOAD","CENTER_NAME":"EARTH","REV_AT_EPOCH":"2743","COUNTRY_CODE":"US","OBJECT_ID":"2022-099E","EPHEMERIS_TYPE":"0","DECAY_DATE":null,"MEAN_MOTION":"15.01273658","EPOCH":"2023-02-10T07:04:08.357088","CLASSIFICATION_TYPE":"U","OBJECT_NAME":"STARLINK-4399","BSTAR":"0.00069982000000","SEMIMAJOR_AXIS":"6941.105","PERIAPSIS":"562.765","LAUNCH_DATE":"2022-08-12","APOAPSIS":"563.175","NORAD_CAT_ID":"53469","TIME_SYSTEM":"UTC","FILE":"3785071","REF_FRAME":"TEME","ARG_OF_PERICENTER":"56.2450","RA_OF_ASC_NODE":"164.1837","ELEMENT_SET_NO":"999","MEAN_MOTION_DDOT":"0.0000000000000","TLE_LINE2":"2 53469  97.6579 164.1837 0000295  56.2450 303.8803 15.01273658 27439","MEAN_MOTION_DOT":"0.00008944","TLE_LINE1":"1 53469U 22099E   23041.29454117  .00008944  00000-0  69982-3 0  9994","MEAN_ELEMENT_THEORY":"SGP4","ECCENTRICITY":"0.00002950"},{"TLE_LINE1":"1 53470U 22099F   23041.29479326  .00006801  00000-0  53353-3 0  9990","MEAN_ELEMENT_THEORY":"SGP4","MEAN_MOTION_DOT":"0.00006801","ECCENTRICITY":"0.00009500","ARG_OF_PERICENTER":"76.4843","RA_OF_ASC_NODE":"164.1838","TIME_SYSTEM":"UTC","NORAD_CAT_ID":"53470","FILE":"3785071","REF_FRAME":"TEME","MEAN_MOTION_DDOT":"0.0000000000000","ELEMENT_SET_NO":"999","TLE_LINE2":"2 53470  97.6584 164.1838 0000950  76.4843 283.6487 15.01264465 27435","DECAY_DATE":null,"MEAN_MOTION":"15.01264465","EPOCH":"2023-02-10T07:04:30.137664","OBJECT_ID":"2022-099F","EPHEMERIS_TYPE":"0","PERIAPSIS":"562.339","LAUNCH_DATE":"2022-08-12","APOAPSIS":"563.657","CLASSIFICATION_TYPE":"U","OBJECT_NAME":"STARLINK-4393","BSTAR":"0.00053353000000","SEMIMAJOR_AXIS":"6941.133","GP_ID":"225072709","OBJECT_TYPE":"PAYLOAD","SITE":"AFWTR","INCLINATION":"97.6584","MEAN_ANOMALY":"283.6487","RCS_SIZE":"LARGE","PERIOD":"95.919","CENTER_NAME":"EARTH","REV_AT_EPOCH":"2743","COUNTRY_CODE":"US"},{"ECCENTRICITY":"0.00007080","MEAN_MOTION_DOT":"0.00015302","MEAN_ELEMENT_THEORY":"SGP4","TLE_LINE1":"1 53471U 22099G   23041.29084199  .00015302  00000-0  11929-2 0  9999","TLE_LINE2":"2 53471  97.6581 164.1809 0000708  92.4027 267.7278 15.01274944 27438","MEAN_MOTION_DDOT":"0.0000000000000","ELEMENT_SET_NO":"999","FILE":"3785071","REF_FRAME":"TEME","NORAD_CAT_ID":"53471","TIME_SYSTEM":"UTC","RA_OF_ASC_NODE":"164.1809","ARG_OF_PERICENTER":"92.4027","SEMIMAJOR_AXIS":"6941.101","BSTAR":"0.00119290000000","OBJECT_NAME":"STARLINK-4316","CLASSIFICATION_TYPE":"U","APOAPSIS":"563.457","LAUNCH_DATE":"2022-08-12","PERIAPSIS":"562.474","EPHEMERIS_TYPE":"0","OBJECT_ID":"2022-099G","EPOCH":"2023-02-10T06:58:48.747936","MEAN_MOTION":"15.01274944","DECAY_DATE":null,"REV_AT_EPOCH":"2743","COUNTRY_CODE":"US","CENTER_NAME":"EARTH","MEAN_ANOMALY":"267.7278","RCS_SIZE":"LARGE","PERIOD":"95.918","SITE":"AFWTR","INCLINATION":"97.6581","OBJECT_TYPE":"PAYLOAD","GP_ID":"225073460"},{"ECCENTRICITY":"0.00008900","TLE_LINE1":"1 53472U 22099H   23041.29269402  .00009367  00000-0  73267-3 0  9990","MEAN_ELEMENT_THEORY":"SGP4","MEAN_MOTION_DOT":"0.00009367","MEAN_MOTION_DDOT":"0.0000000000000","ELEMENT_SET_NO":"999","TLE_LINE2":"2 53472  97.6578 164.1837 0000890  82.0290 278.1035 15.01271689 27435","RA_OF_ASC_NODE":"164.1837","ARG_OF_PERICENTER":"82.0290","REF_FRAME":"TEME","FILE":"3785071","NORAD_CAT_ID":"53472","TIME_SYSTEM":"UTC","PERIAPSIS":"562.358","APOAPSIS":"563.594","LAUNCH_DATE":"2022-08-12","CLASSIFICATION_TYPE":"U","OBJECT_NAME":"STARLINK-4447","BSTAR":"0.00073267000000","SEMIMAJOR_AXIS":"6941.111","DECAY_DATE":null,"EPOCH":"2023-02-10T07:01:28.763328","MEAN_MOTION":"15.01271689","EPHEMERIS_TYPE":"0","OBJECT_ID":"2022-099H","COUNTRY_CODE":"US","REV_AT_EPOCH":"2743","CENTER_NAME":"EARTH","OBJECT_TYPE":"PAYLOAD","GP_ID":"225073712","INCLINATION":"97.6578","SITE":"AFWTR","RCS_SIZE":"LARGE","PERIOD":"95.919","MEAN_ANOMALY":"278.1035"},{"OBJECT_TYPE":"PAYLOAD","GP_ID":"225073959","PERIOD":"95.918","RCS_SIZE":"LARGE","MEAN_ANOMALY":"268.6008","SITE":"AFWTR","INCLINATION":"97.6558","REV_AT_EPOCH":"2744","COUNTRY_CODE":"US","CENTER_NAME":"EARTH","EPOCH":"2023-02-10T08:29:27.954528","MEAN_MOTION":"15.01281291","DECAY_DATE":null,"EPHEMERIS_TYPE":"0","OBJECT_ID":"2022-099J","APOAPSIS":"563.930","LAUNCH_DATE":"2022-08-12","PERIAPSIS":"561.963","SEMIMAJOR_AXIS":"6941.081","BSTAR":"0.00170460000000","OBJECT_NAME":"STARLINK-4383","CLASSIFICATION_TYPE":"U","RA_OF_ASC_NODE":"164.2507","ARG_OF_PERICENTER":"91.5379","REF_FRAME":"TEME","FILE":"3785071","NORAD_CAT_ID":"53473","TIME_SYSTEM":"UTC","TLE_LINE2":"2 53473  97.6558 164.2507 0001417  91.5379 268.6008 15.01281291 27443","ELEMENT_SET_NO":"999","MEAN_MOTION_DDOT":"0.0000000000000","TLE_LINE1":"1 53473U 22099J   23041.35379577  .00021916  00000-0  17046-2 0  9999","MEAN_ELEMENT_THEORY":"SGP4","MEAN_MOTION_DOT":"0.00021916","ECCENTRICITY":"0.00014170"},{"MEAN_MOTION_DDOT":"0.0000000000000","ELEMENT_SET_NO":"999","TLE_LINE2":"2 53474  97.6554 164.2506 0001634 106.0977 254.0427 15.01283143 27448","RA_OF_ASC_NODE":"164.2506","ARG_OF_PERICENTER":"106.0977","REF_FRAME":"TEME","FILE":"3785071","NORAD_CAT_ID":"53474","TIME_SYSTEM":"UTC","ECCENTRICITY":"0.00016340","MEAN_ELEMENT_THEORY":"SGP4","TLE_LINE1":"1 53474U 22099K   23041.34662978  .00016829  00000-0  13109-2 0  9992","MEAN_MOTION_DOT":"0.00016829","REV_AT_EPOCH":"2744","COUNTRY_CODE":"US","CENTER_NAME":"EARTH","OBJECT_TYPE":"PAYLOAD","GP_ID":"225073210","SITE":"AFWTR","INCLINATION":"97.6554","MEAN_ANOMALY":"254.0427","RCS_SIZE":"LARGE","PERIOD":"95.918","PERIAPSIS":"561.806","LAUNCH_DATE":"2022-08-12","APOAPSIS":"564.075","OBJECT_NAME":"STARLINK-4445","CLASSIFICATION_TYPE":"U","SEMIMAJOR_AXIS":"6941.076","BSTAR":"0.00131090000000","DECAY_DATE":null,"MEAN_MOTION":"15.01283143","EPOCH":"2023-02-10T08:19:08.812992","EPHEMERIS_TYPE":"0","OBJECT_ID":"2022-099K"},{"PERIAPSIS":"561.821","APOAPSIS":"564.034","LAUNCH_DATE":"2022-08-12","CLASSIFICATION_TYPE":"U","OBJECT_NAME":"STARLINK-4389","BSTAR":"0.00140080000000","SEMIMAJOR_AXIS":"6941.063","DECAY_DATE":null,"EPOCH":"2023-02-10T08:26:47.244480","MEAN_MOTION":"15.01287237","EPHEMERIS_TYPE":"0","OBJECT_ID":"2022-099L","REV_AT_EPOCH":"2814","COUNTRY_CODE":"US","CENTER_NAME":"EARTH","OBJECT_TYPE":"PAYLOAD","GP_ID":"225072960","SITE":"AFWTR","INCLINATION":"97.6573","PERIOD":"95.918","RCS_SIZE":"LARGE","MEAN_ANOMALY":"261.5062","ECCENTRICITY":"0.00015940","TLE_LINE1":"1 53475U 22099L   23041.35193570  .00017992  00000-0  14008-2 0  9992","MEAN_ELEMENT_THEORY":"SGP4","MEAN_MOTION_DOT":"0.00017992","ELEMENT_SET_NO":"999","MEAN_MOTION_DDOT":"0.0000000000000","TLE_LINE2":"2 53475  97.6573 164.2507 0001594  98.6343 261.5062 15.01287237 28143","RA_OF_ASC_NODE":"164.2507","ARG_OF_PERICENTER":"98.6343","FILE":"3785071","REF_FRAME":"TEME","NORAD_CAT_ID":"53475","TIME_SYSTEM":"UTC"},{"TLE_LINE2":"2 53476  97.6578 164.2489 0001201  92.4089 267.7272 15.01308523 27447","MEAN_MOTION_DDOT":"0.0000000000000","ELEMENT_SET_NO":"999","FILE":"3785071","REF_FRAME":"TEME","TIME_SYSTEM":"UTC","NORAD_CAT_ID":"53476","RA_OF_ASC_NODE":"164.2489","ARG_OF_PERICENTER":"92.4089","ECCENTRICITY":"0.00012010","MEAN_MOTION_DOT":"0.00024788","MEAN_ELEMENT_THEORY":"SGP4","TLE_LINE1":"1 53476U 22099M   23041.35562668  .00024788  00000-0  19253-2 0  9999","REV_AT_EPOCH":"2744","COUNTRY_CODE":"US","CENTER_NAME":"EARTH","RCS_SIZE":"LARGE","PERIOD":"95.916","MEAN_ANOMALY":"267.7272","SITE":"AFWTR","INCLINATION":"97.6578","OBJECT_TYPE":"PAYLOAD","GP_ID":"225074212","BSTAR":"0.00192530000000","SEMIMAJOR_AXIS":"6940.997","CLASSIFICATION_TYPE":"U","OBJECT_NAME":"STARLINK-4378","LAUNCH_DATE":"2022-08-12","APOAPSIS":"563.696","PERIAPSIS":"562.029","EPHEMERIS_TYPE":"0","OBJECT_ID":"2022-099M","MEAN_MOTION":"15.01308523","EPOCH":"2023-02-10T08:32:06.145152","DECAY_DATE":null}];
